    PK04FE0Y  2015 07 16.2642  4.109041  0.167186  239.3515  327.1703    2.1265  20100723  12.5  2.0  P/2004 FY140 (LINEAR)                                    MPC 54823
    PK04H18C  2010 12 29.5920  1.714002  0.509221   30.9829  219.4867   23.4918  20100723  16.5  2.0  P/2004 HC18 (LINEAR)                                     MPC 59601
    PK04R010  2010 02 23.6511  0.985571  0.682775    0.6826  295.9574    4.8936  20100723  18.5  4.0  P/2004 R1 (McNaught)                                     MPC 59598
    PK04T010  2011 04 24.9550  1.707525  0.507947  336.4388   51.4490   11.0442  20100723  12.5  4.0  P/2004 T1 (LINEAR-NEAT)                                  MPC 62880
    CK05EH3L  2007 03  4.4402  3.890287  1.000800  261.4786  344.8128  130.6735  20100723  11.5  2.0  C/2005 EL173 (LONEOS)                                    MPC 61702
    PK05J05Q  2009 12 28.8426  0.823110  0.694167  222.7408   95.8314    5.6953  20100723  17.5  4.0  P/2005 JQ5 (Catalina)                                    MPC 56805
    PK05L010  2013 11 23.8602  3.152419  0.208229  149.9620  138.3050    7.7353  20100723   9.5  4.0  P/2005 L1 (McNaught)                                     MPC 54559
    CK05L030  2008 01 17.0837  5.594606  1.001284   47.2114  288.7737  139.4431  20100723   4.0  4.0  C/2005 L3 (McNaught)                                     MPC 59596
    PK05R25V  2006 11  4.6357  3.597792  0.167005  191.1418  246.8722    9.8904  20100723   9.5  4.0  P/2005 RV25 (LONEOS-Christensen)                         MPC 55978
    PK05S020  2006 07  2.8249  6.399703  0.198879  230.0868  161.1985    3.1412  20100723   7.5  4.0  P/2005 S2 (Skiff)                                        MPC 54987
    CK05S040  2007 07 20.3355  5.855862  0.999916   31.6205  318.2957  107.9573  20100723   5.0  4.0  C/2005 S4 (McNaught)                                     MPC 60464
    PK05SL6B  2007 02 10.9107  3.807875  0.463929   83.3329    1.6751   24.1192  20100723  12.0  2.0  P/2005 SB216 (LONEOS)                                    MPC 61994
    CK06E010  2007 01  8.1243  6.045547  1.003470  232.9135   95.0632   83.1710  20100723   6.0  4.0  C/2006 E1 (McNaught)                                     MPC 65935
    PK06F010  2008 02 18.2335  4.120892  0.118406  186.7382  124.7575   21.2752  20100723   8.0  4.0  P/2006 F1 (Kowalski)                                     MPC 60465
    CK06K040  2007 11 29.7611  3.189593  0.998856  233.6802  116.6184  111.3207  20100723   6.0  4.0  C/2006 K4 (NEAT)                                         MPC 62270
    CK06O02F  2008 09 15.8582  2.431287  1.001734   95.6342  318.5020   30.1610  20100723   5.5  4.0  C/2006 OF2 (Broughton)                                   MPC 62270
    CK06Q010  2008 07  3.6397  2.762962  0.998842  344.3392  199.5645   59.0547  20100723   5.0  4.0  C/2006 Q1 (McNaught)                                     MPC 61994
    CK06S030  2012 04 16.5806  5.132168  1.001793  140.1368   38.3720  166.0324  20100723   2.0  4.0  C/2006 S3 (LONEOS)                                       MPC 68901
    PK06T010  2012 01 12.3587  1.006391  0.667950  179.6540  279.7736   18.2714  20100723  10.5  4.0  P/2006 T1 (Levy)                                         MPC 65937
    CK06U060  2008 06  5.6648  2.496151  0.999177  276.5710  180.1848   84.9030  20100723   8.0  4.0  C/2006 U6 (Spacewatch)                                   MPC 66204
    CK06W030  2009 07  6.5882  3.126337  0.999957  133.5174  113.5825  127.0496  20100723   5.0  4.0  C/2006 W3 (Christensen)                                  MPC 61436
    CK07B020  2008 08 20.9910  2.980123  0.996051  206.1924   14.8055   27.5014  20100723   6.0  4.0  C/2007 B2 (Skiff)                                        MPC 66700
    CK07D010  2007 06 14.5752  8.786236  0.994023  339.9488  171.0927   41.5474  20100723   3.5  4.0  C/2007 D1 (LINEAR)                                       MPC 69416
    CK07G010  2008 11 16.3271  2.647694  1.001595  224.0030   79.0102   88.3184  20100723   5.5  4.0  C/2007 G1 (LINEAR)                                       MPC 66464
    PK07H010  2007 08 18.2421  2.282902  0.378296  202.7707  144.3642   11.8738  20100723  10.0  4.0  P/2007 H1 (McNaught)                                     MPC 62270
    CK07M010  2008 08 13.2053  7.476979  0.996658   52.7283  326.8107  139.7208  20100723   6.0  4.0  C/2007 M1 (McNaught)                                     MPC 63376
    CK07M020  2008 12  8.4421  3.541511  0.998135  220.6681  357.2924   80.9530  20100723   8.0  4.0  C/2007 M2 (Catalina)                                     MPC 68392
    CK07N030  2009 01 10.6436  1.211165  0.999896  136.8487  338.5594  178.3738  20100723   6.5  4.0  C/2007 N3 (Lulin)                                        MPC 65054
    CK07Q030  2009 10  7.2286  2.251400  1.000014    2.0752  149.4116   65.6495  20100723   4.5  4.0  C/2007 Q3 (Siding Spring)                                MPC 61437
    PK07R010  2007 08 25.6582  4.356334  0.278537  175.4086  181.6341    7.8743  20100723   8.0  4.0  P/2007 R1 (Larson)                                       MPC 65645
    CK07S020  2008 09 13.1359  5.555290  0.556166  210.3543  296.1988   16.8551  20100723   6.5  4.0  C/2007 S2 (Lemmon)                                       MPC 64767
    CK07T050  2008 05 23.6496  4.047026  0.912018   34.3439  109.8188   45.6187  20100723   8.0  4.0  C/2007 T5 (Gibbs)                                        MPC 65935
    CK07V53O  2010 04 26.4922  4.842666  0.999879   75.0317   59.7343   86.9895  20100723   7.0  4.0  C/2007 VO53 (Spacewatch)                                 MPC 63821
    CK08A010  2008 09 29.0580  1.073909  1.000341  348.4830  277.9153   82.5324  20100723   6.5  4.0  C/2008 A1 (McNaught)                                     MPC 65935
    PK08C94L  2006 06 20.7659  5.421933  0.119856   81.1541   33.4535    8.3547  20100723   8.0  4.0  P/2008 CL94 (Lemmon)                                     MPC 65645
    CK08E010  2008 08 11.9305  4.828071  0.549107  269.9910  189.0031   35.0480  20100723   7.0  4.0  C/2008 E1 (Catalina)                                     MPC 64113
    CK08E030  2008 08  2.9728  5.532774  0.998964  218.1763  105.6932  105.0770  20100723   6.0  4.0  C/2008 E3 (Garradd)                                      MPC 68392
    CK08F75K  2010 09 29.2039  4.511065  1.002740   80.4128  218.2661   61.1747  20100723   5.0  4.0  C/2008 FK75 (Lemmon-Siding Spring)                       MPC 64767
    CK08G010  2009 01 12.2224  3.990195  0.988260   63.7689  215.9174   72.8483  20100723   9.5  4.0  C/2008 G1 (Gibbs)                                        MPC 63136
    PK08J020  2008 03 20.4221  2.391953  0.311141  131.3475   98.0419   10.2529  20100723   9.0  4.0  P/2008 J2 (Beshore)                                      MPC 63376
    PK08J030  2009 03 10.9286  2.287878  0.412523    4.4879    9.8486   25.3995  20100723  12.0  4.0  P/2008 J3 (McNaught)                                     MPC 67971
    CK08N010  2009 09 25.9387  2.783512  0.997676  100.8245  357.4709  115.5228  20100723   9.0  4.0  C/2008 N1 (Holmes)                                       MPC 68902
    PK08O020  2009 04 21.7832  3.804365  0.152472   27.5103  325.8565    9.5183  20100723   9.0  4.0  P/2008 O2 (McNaught)                                     MPC 66921
    CK08P010  2009 07 22.9979  3.896670  1.001041   11.8815  357.6790   64.3140  20100723   7.0  4.0  C/2008 P1 (Garradd)                                      MPC 64114
    CK08Q010  2008 12 30.2845  2.958833  0.995659  104.4928    9.3053  118.6408  20100723  10.0  4.0  C/2008 Q1 (Maticic)                                      MPC 65935
    CK08Q030  2009 06 23.1128  1.797860  0.999848  340.8612  219.7468  140.7096  20100723  10.0  4.0  C/2008 Q3 (Garradd)                                      MPC 66204
    CK08S030  2011 06  5.6139  8.019139  1.000599   39.8413   54.9301  162.6991  20100723   4.0  4.0  C/2008 S3 (Boattini)                                     MPC 66921
    PK08T010  2008 02 26.9928  3.046131  0.280947   36.0395  291.7738    2.0824  20100723  11.0  4.0  P/2008 T1 (Boattini)                                     MPC 67413
    CK08T020  2009 06 13.1886  1.202779  0.999980  215.8809  309.6818   56.2985  20100723   6.0  4.0  C/2008 T2 (Cardinal)                                     MPC 66921
    PK08Y030  2009 01 11.3587  4.433314  0.447288  238.2264  262.9029   38.8155  20100723   8.5  4.0  P/2008 Y3 (McNaught)                                     MPC 65936
    CK09F020  2009 11 14.1170  5.875018  0.983055  336.3455  214.0545   59.3685  20100723   6.0  4.0  C/2009 F2 (McNaught)                                     MPC 66204
    CK09F040  2011 12 31.6579  5.455161  1.002748  260.3651   53.5710   79.3344  20100723   3.0  4.0  C/2009 F4 (McNaught)                                     MPC 68392
    CK09F050  2008 11  4.7888  2.244617  0.971652  297.3428  219.0774   85.0080  20100723  10.0  4.0  C/2009 F5 (McNaught)                                     MPC 66204
    CK09F060  2009 05  7.4228  1.273898  0.997451  129.7613  278.6655   85.7555  20100723   6.0  4.0  C/2009 F6 (Yi-SWAN)                                      MPC 67147
    CK09G010  2009 04 16.5062  1.129299  0.997806  175.4719  120.6500  108.3044  20100723   9.0  4.0  C/2009 G1 (STEREO)                                       MPC 66466
    CK09K020  2010 02  7.5839  3.246306  0.998142  147.7153  123.8069   66.8142  20100723  10.0  4.0  C/2009 K2 (Catalina)                                     MPC 67683
    CK09K030  2011 01  9.266   3.90156   1.00000   251.413     0.032   146.680              8.5  4.0  C/2009 K3 (Beshore)                                      MPC 66205
    CK09K050  2010 04 30.0240  1.422402  1.000851   66.1740  257.8563  103.8794  20100723   7.5  4.0  C/2009 K5 (McNaught)                                     MPC 69416
    CK09O020  2010 03 24.4144  0.695416  0.997429  133.4036  310.2306  107.9574  20100723  11.0  4.0  C/2009 O2 (Catalina)                                     MPC 68902
